GLOBALSTAR M045         
1 25676U 99019A   25035.18310015 -.00000063  00000+0  26581-3 0  9992
2 25676  51.9995 324.3602 0000624  17.9004 129.4841 12.27055773177305
GLOBALSTAR M019         
1 25677U 99019B   25035.10716913  .00000057  00000+0  15373-2 0  9990
2 25677  51.9880  85.5753 0001242  77.9357 297.7432 12.13871278169178
GLOBALSTAR M044         
1 25678U 99019C   25035.16406052 -.00000122  00000+0 -53329-3 0  9996
2 25678  51.9991  20.1355 0006512 143.3847 298.6700 11.90247783155469
GLOBALSTAR M042         
1 25679U 99019D   25034.42979802 -.00000064  00000+0  26425-3 0  9994
2 25679  52.0020  68.5534 0002678  32.0358  76.3512 12.22077658168903
GLOBALSTAR M025         
1 25770U 99031A   25034.94289831 -.00000057  00000+0  33646-3 0  9998
2 25770  51.9815 107.9416 0000952 253.1164 277.3816 11.22558763466749
GLOBALSTAR M049         
1 25771U 99031B   25034.96430010 -.00000007  00000+0  20252-2 0  9991
2 25771  51.9870 135.9598 0004242 143.2454 216.8634 11.12114230102604
GLOBALSTAR M047         
1 25772U 99031C   25034.53982683 -.00000053  00000+0  44953-3 0  9999
2 25772  51.9820 146.6601 0016409  37.1167 323.0771 11.31925653455978
GLOBALSTAR M052         
1 25773U 99031D   25034.04351882 -.00000032  00000+0  11312-2 0  9996
2 25773  51.9835 248.6120 0001926 337.5039 137.1597 11.15057791463540
